start=new Date('2022-05-05T00:00:00.000Z').valueOf();
sats=[{"ELEMENT_SET_NO":"999","RA_OF_ASC_NODE":"293.0935","CLASSIFICATION_TYPE":"U","ECCENTRICITY":"0.00013940","SEMIMAJOR_AXIS":"6925.335","BSTAR":"0.00016531000000","OBJECT_NAME":"STARLINK-1338","APOAPSIS":"548.165","TLE_LINE2":"2 45532  53.0553 293.0935 0001394  84.3734 275.7414 15.06404427113355","NORAD_CAT_ID":"45532","OBJECT_ID":"2020-025B","EPOCH":"2022-05-04T20:55:27.652512","TLE_LINE1":"1 45532U 20025B   22124.87184783  .00002182  00000-0  16531-3 0  9997","CENTER_NAME":"EARTH","INCLINATION":"53.0553","OBJECT_TYPE":"PAYLOAD","REV_AT_EPOCH":"11335","MEAN_ELEMENT_THEORY":"SGP4","TIME_SYSTEM":"UTC","EPHEMERIS_TYPE":"0","SITE":"AFETR","RCS_SIZE":"LARGE","PERIAPSIS":"546.235","MEAN_MOTION":"15.06404427","MEAN_ANOMALY":"275.7414","MEAN_MOTION_DDOT":"0.0000000000000","MEAN_MOTION_DOT":"0.00002182","LAUNCH_DATE":"2020-04-22","ARG_OF_PERICENTER":"84.3734","GP_ID":"202713148","REF_FRAME":"TEME","PERIOD":"95.592","DECAY_DATE":null,"FILE":"3429148","COUNTRY_CODE":"US"},{"FILE":"3429148","GP_ID":"202714397","ARG_OF_PERICENTER":"307.6892","PERIOD":"93.097","REF_FRAME":"TEME","DECAY_DATE":null,"COUNTRY_CODE":"US","PERIAPSIS":"421.649","SITE":"AFETR","RCS_SIZE":"LARGE","MEAN_MOTION":"15.46774762","MEAN_MOTION_DDOT":"0.0000000000000","MEAN_MOTION_DOT":"0.00121424","MEAN_ANOMALY":"52.3512","LAUNCH_DATE":"2020-04-22","EPOCH":"2022-05-04T20:37:52.038912","TLE_LINE1":"1 45533U 20025C   22124.85963008  .00121424  00000-0  23547-2 0  9996","CENTER_NAME":"EARTH","INCLINATION":"53.0435","NORAD_CAT_ID":"45533","OBJECT_ID":"2020-025C","EPHEMERIS_TYPE":"0","OBJECT_TYPE":"PAYLOAD","REV_AT_EPOCH":"11381","MEAN_ELEMENT_THEORY":"SGP4","TIME_SYSTEM":"UTC","RA_OF_ASC_NODE":"260.4313","ELEMENT_SET_NO":"999","SEMIMAJOR_AXIS":"6804.305","BSTAR":"0.00235470000000","OBJECT_NAME":"STARLINK-1339","APOAPSIS":"430.691","TLE_LINE2":"2 45533  53.0435 260.4313 0006644 307.6892  52.3512 15.46774762113817","CLASSIFICATION_TYPE":"U","ECCENTRICITY":"0.00066440"},{"SEMIMAJOR_AXIS":"6925.376","OBJECT_NAME":"STARLINK-1341","BSTAR":"-0.00003839600000","APOAPSIS":"548.258","TLE_LINE2":"2 45534  53.0546 293.3365 0001469  81.7989 278.3166 15.06391045113348","CLASSIFICATION_TYPE":"U","ECCENTRICITY":"0.00014690","RA_OF_ASC_NODE":"293.3365","ELEMENT_SET_NO":"999","EPHEMERIS_TYPE":"0","OBJECT_TYPE":"PAYLOAD","REV_AT_EPOCH":"11334","MEAN_ELEMENT_THEORY":"SGP4","TIME_SYSTEM":"UTC","EPOCH":"2022-05-04T19:35:52.249344","TLE_LINE1":"1 45534U 20025D   22124.81657696 -.00000853  00000-0 -38396-4 0  9990","CENTER_NAME":"EARTH","INCLINATION":"53.0546","NORAD_CAT_ID":"45534","OBJECT_ID":"2020-025D","MEAN_MOTION":"15.06391045","MEAN_MOTION_DDOT":"0.0000000000000","MEAN_MOTION_DOT":"-0.00000853","MEAN_ANOMALY":"278.3166","LAUNCH_DATE":"2020-04-22","PERIAPSIS":"546.224","SITE":"AFETR","RCS_SIZE":"LARGE","COUNTRY_CODE":"US","FILE":"3429148","ARG_OF_PERICENTER":"81.7989","GP_ID":"202714144","REF_FRAME":"TEME","PERIOD":"95.593","DECAY_DATE":null},{"MEAN_MOTION":"15.06405912","LAUNCH_DATE":"2020-04-22","MEAN_ANOMALY":"314.4265","MEAN_MOTION_DDOT":"0.0000000000000","MEAN_MOTION_DOT":"0.00000864","RCS_SIZE":"LARGE","SITE":"AFETR","PERIAPSIS":"545.860","COUNTRY_CODE":"US","REF_FRAME":"TEME","PERIOD":"95.592","GP_ID":"202713399","ARG_OF_PERICENTER":"45.6882","DECAY_DATE":null,"FILE":"3429148","CLASSIFICATION_TYPE":"U","ECCENTRICITY":"0.00019280","BSTAR":"0.00007686200000","OBJECT_NAME":"STARLINK-1350","SEMIMAJOR_AXIS":"6925.330","TLE_LINE2":"2 45535  53.0535 293.2534 0001928  45.6882 314.4265 15.06405912113357","APOAPSIS":"548.531","ELEMENT_SET_NO":"999","RA_OF_ASC_NODE":"293.2534","OBJECT_TYPE":"PAYLOAD","TIME_SYSTEM":"UTC","MEAN_ELEMENT_THEORY":"SGP4","REV_AT_EPOCH":"11335","EPHEMERIS_TYPE":"0","NORAD_CAT_ID":"45535","OBJECT_ID":"2020-025E","CENTER_NAME":"EARTH","TLE_LINE1":"1 45535U 20025E   22124.83498560  .00000864  00000-0  76862-4 0  9996","EPOCH":"2022-05-04T20:02:22.755840","INCLINATION":"53.0535"},{"PERIAPSIS":"545.999","RCS_SIZE":"LARGE","SITE":"AFETR","MEAN_MOTION":"15.06399764","LAUNCH_DATE":"2020-04-22","MEAN_MOTION_DDOT":"0.0000000000000","MEAN_MOTION_DOT":"0.00000380","MEAN_ANOMALY":"269.9376","FILE":"3429148","PERIOD":"95.592","REF_FRAME":"TEME","ARG_OF_PERICENTER":"90.1814","GP_ID":"202713649","DECAY_DATE":null,"COUNTRY_CODE":"US","RA_OF_ASC_NODE":"293.5382","ELEMENT_SET_NO":"999","OBJECT_NAME":"STARLINK-1352","BSTAR":"0.00004443600000","SEMIMAJOR_AXIS":"6925.349","TLE_LINE2":"2 45536  53.0569 293.5382 0001755  90.1814 269.9376 15.06399764113339","APOAPSIS":"548.430","CLASSIFICATION_TYPE":"U","ECCENTRICITY":"0.00017550","CENTER_NAME":"EARTH","TLE_LINE1":"1 45536U 20025F   22124.77233234  .00000380  00000-0  44436-4 0  9990","EPOCH":"2022-05-04T18:32:09.514176","INCLINATION":"53.0569","NORAD_CAT_ID":"45536","OBJECT_ID":"2020-025F","EPHEMERIS_TYPE":"0","OBJECT_TYPE":"PAYLOAD","TIME_SYSTEM":"UTC","REV_AT_EPOCH":"11333","MEAN_ELEMENT_THEORY":"SGP4"},{"DECAY_DATE":null,"PERIOD":"94.609","REF_FRAME":"TEME","GP_ID":"202713897","ARG_OF_PERICENTER":"278.7322","FILE":"3429148","COUNTRY_CODE":"US","RCS_SIZE":"LARGE","SITE":"AFETR","PERIAPSIS":"497.703","LAUNCH_DATE":"2020-04-22","MEAN_ANOMALY":"81.3349","MEAN_MOTION_DDOT":"0.0000000000000","MEAN_MOTION_DOT":"0.00030181","MEAN_MOTION":"15.22047038","OBJECT_ID":"2020-025G","NORAD_CAT_ID":"45537","INCLINATION":"52.9919","CENTER_NAME":"EARTH","EPOCH":"2022-05-04T16:07:12.453024","TLE_LINE1":"1 45537U 20025G   22124.67167191  .00030181  00000-0  13120-2 0  9994","TIME_SYSTEM":"UTC","REV_AT_EPOCH":"11386","MEAN_ELEMENT_THEORY":"SGP4","OBJECT_TYPE":"PAYLOAD","EPHEMERIS_TYPE":"0","ELEMENT_SET_NO":"999","RA_OF_ASC_NODE":"253.5678","ECCENTRICITY":"0.00028590","CLASSIFICATION_TYPE":"U","TLE_LINE2":"2 45537  52.9919 253.5678 0002859 278.7322  81.3349 15.22047038113861","APOAPSIS":"501.635","OBJECT_NAME":"STARLINK-1353","BSTAR":"0.00131200000000","SEMIMAJOR_AXIS":"6877.804"},{"SEMIMAJOR_AXIS":"6925.315","OBJECT_NAME":"STARLINK-1362","BSTAR":"0.00017909000000","APOAPSIS":"548.107","TLE_LINE2":"2 45538  53.0556 293.4238 0001339  81.4377 278.6763 15.06410938113346","CLASSIFICATION_TYPE":"U","ECCENTRICITY":"0.00013390","RA_OF_ASC_NODE":"293.4238","ELEMENT_SET_NO":"999","EPHEMERIS_TYPE":"0","OBJECT_TYPE":"PAYLOAD","REV_AT_EPOCH":"11334","MEAN_ELEMENT_THEORY":"SGP4","TIME_SYSTEM":"UTC","TLE_LINE1":"1 45538U 20025H   22124.79812044  .00002388  00000-0  17909-3 0  9990","EPOCH":"2022-05-04T19:09:17.606016","CENTER_NAME":"EARTH","INCLINATION":"53.0556","NORAD_CAT_ID":"45538","OBJECT_ID":"2020-025H","MEAN_MOTION":"15.06410938","MEAN_MOTION_DDOT":"0.0000000000000","MEAN_ANOMALY":"278.6763","MEAN_MOTION_DOT":"0.00002388","LAUNCH_DATE":"2020-04-22","PERIAPSIS":"546.253","SITE":"AFETR","RCS_SIZE":"LARGE","COUNTRY_CODE":"US","FILE":"3429148","ARG_OF_PERICENTER":"81.4377","GP_ID":"202714645","REF_FRAME":"TEME","PERIOD":"95.591","DECAY_DATE":null},{"TLE_LINE1":"1 45539U 20025J   22124.68967068  .00008708  00000-0  57010-4 0  9996","EPOCH":"2022-05-04T16:33:07.546752","CENTER_NAME":"EARTH","INCLINATION":"53.0434","NORAD_CAT_ID":"45539","OBJECT_ID":"2020-025J","EPHEMERIS_TYPE":"0","OBJECT_TYPE":"PAYLOAD","MEAN_ELEMENT_THEORY":"SGP4","REV_AT_EPOCH":"11582","TIME_SYSTEM":"UTC","RA_OF_ASC_NODE":"113.9004","ELEMENT_SET_NO":"999","SEMIMAJOR_AXIS":"6717.751","OBJECT_NAME":"STARLINK-1367","BSTAR":"0.00005701000000","APOAPSIS":"345.178","TLE_LINE2":"2 45539  53.0434 113.9004 0008279 279.0021  81.0061 15.76764810115820","CLASSIFICATION_TYPE":"U","ECCENTRICITY":"0.00082790","FILE":"3429148","ARG_OF_PERICENTER":"279.0021","GP_ID":"202712899","REF_FRAME":"TEME","PERIOD":"91.326","DECAY_DATE":null,"COUNTRY_CODE":"US","PERIAPSIS":"334.054","SITE":"AFETR","RCS_SIZE":"LARGE","MEAN_MOTION":"15.76764810","MEAN_MOTION_DOT":"0.00008708","MEAN_MOTION_DDOT":"0.0000000000000","MEAN_ANOMALY":"81.0061","LAUNCH_DATE":"2020-04-22"},{"FILE":"3429148","DECAY_DATE":null,"REF_FRAME":"TEME","PERIOD":"95.592","GP_ID":"202713149","ARG_OF_PERICENTER":"63.5379","COUNTRY_CODE":"US","PERIAPSIS":"546.122","RCS_SIZE":"LARGE","SITE":"AFETR","LAUNCH_DATE":"2020-04-22","MEAN_MOTION_DDOT":"0.0000000000000","MEAN_ANOMALY":"296.5770","MEAN_MOTION_DOT":"0.00003131","MEAN_MOTION":"15.06403301","INCLINATION":"53.0554","CENTER_NAME":"EARTH","EPOCH":"2022-05-04T20:12:59.821056","TLE_LINE1":"1 45540U 20025K   22124.84235904  .00003131  00000-0  22901-3 0  9998","OBJECT_ID":"2020-025K","NORAD_CAT_ID":"45540","EPHEMERIS_TYPE":"0","TIME_SYSTEM":"UTC","REV_AT_EPOCH":"11334","MEAN_ELEMENT_THEORY":"SGP4","OBJECT_TYPE":"PAYLOAD","RA_OF_ASC_NODE":"293.2200","ELEMENT_SET_NO":"999","TLE_LINE2":"2 45540  53.0554 293.2200 0001562  63.5379 296.5770 15.06403301113348","APOAPSIS":"548.285","BSTAR":"0.00022901000000","OBJECT_NAME":"STARLINK-1368","SEMIMAJOR_AXIS":"6925.338","ECCENTRICITY":"0.00015620","CLASSIFICATION_TYPE":"U"},{"ECCENTRICITY":"0.00017940","CLASSIFICATION_TYPE":"U","APOAPSIS":"548.457","TLE_LINE2":"2 45541  53.0547 293.1959 0001794  56.3180 303.7980 15.06399713113343","SEMIMAJOR_AXIS":"6925.349","BSTAR":"0.00003604300000","OBJECT_NAME":"STARLINK-1369","ELEMENT_SET_NO":"999","RA_OF_ASC_NODE":"293.1959","MEAN_ELEMENT_THEORY":"SGP4","REV_AT_EPOCH":"11334","TIME_SYSTEM":"UTC","OBJECT_TYPE":"PAYLOAD","EPHEMERIS_TYPE":"0","OBJECT_ID":"2020-025L","NORAD_CAT_ID":"45541","INCLINATION":"53.0547","TLE_LINE1":"1 45541U 20025L   22124.84606754  .00000255  00000-0  36043-4 0  9991","EPOCH":"2022-05-04T20:18:20.235456","CENTER_NAME":"EARTH","MEAN_MOTION_DOT":"0.00000255","MEAN_MOTION_DDOT":"0.0000000000000","MEAN_ANOMALY":"303.7980","LAUNCH_DATE":"2020-04-22","MEAN_MOTION":"15.06399713","SITE":"AFETR","RCS_SIZE":"LARGE","PERIAPSIS":"545.972","COUNTRY_CODE":"US","DECAY_DATE":null,"GP_ID":"202714398","ARG_OF_PERICENTER":"56.3180","PERIOD":"95.592","REF_FRAME":"TEME","FILE":"3429148"}];
